QIANFAN-25              
1 61558U 24185G   25295.97518446  .00000744  00000+0  44653-3 0  9991
2 61558  88.9769  83.9277 0010592 102.2403 257.9966 14.05836066 62370
QIANFAN-26              
1 61559U 24185H   25295.98422087  .00000431  00000+0  41852-3 0  9999
2 61559  88.9768  85.2228 0006517 150.2275 209.9263 13.77769047 61685
QIANFAN-27              
1 61560U 24185J   25295.99041618  .00001123  00000+0  45362-3 0  9998
2 61560  88.9764  82.8873 0010074  95.6590 264.5753 14.27235666 62927
QIANFAN-28              
1 61561U 24185K   25295.92632245  .00001409  00000+0  56373-3 0  9995
2 61561  88.9781  82.8940 0009229  95.7820 264.4427 14.27872209 62926
QIANFAN-29              
1 61562U 24185L   25295.93154368  .00000255  00000+0  37647-3 0  9993
2 61562  88.9741  86.5553 0009845 188.5163 171.5822 13.50984871 60939
QIANFAN-30              
1 61563U 24185M   25295.94207297  .00000234  00000+0  34900-3 0  9991
2 61563  88.9762  86.0600 0007828 170.2604 189.8700 13.49961999 61211
QIANFAN-31              
1 61564U 24185N   25295.91388701  .00000271  00000+0  35899-3 0  9998
2 61564  88.9746  85.9455 0007547 165.9851 194.1515 13.57935853 61260
QIANFAN-32              
1 61565U 24185P   25295.93860497  .00000228  00000+0  33660-3 0  9994
2 61565  88.9805  86.1793 0008785 199.5447 160.5368 13.50713280 61189
